[{"OBJECT_NAME":"STARLINK-30805","OBJECT_ID":"2023-170J","EPOCH":"2026-03-09T22:00:01.999584","MEAN_MOTION":15.26740375,"ECCENTRICITY":0.00013342,"INCLINATION":43,"RA_OF_ASC_NODE":192.6551,"ARG_OF_PERICENTER":263.3155,"MEAN_ANOMALY":238.1531,"EPHEMERIS_TYPE":0,"CLASSIFICATION_TYPE":"U","NORAD_CAT_ID":58214,"ELEMENT_SET_NO":999,"REV_AT_EPOCH":578,"BSTAR":0.00084192649,"MEAN_MOTION_DOT":0.00022393,"MEAN_MOTION_DDOT":0},{"OBJECT_NAME":"LIZZIESAT-2 (LS-2)","OBJECT_ID":"2024-247G","EPOCH":"2026-03-09T11:47:37.199328","MEAN_MOTION":15.28222796,"ECCENTRICITY":0.00040927,"INCLINATION":44.9909,"RA_OF_ASC_NODE":117.0823,"ARG_OF_PERICENTER":327.5136,"MEAN_ANOMALY":32.5495,"EPHEMERIS_TYPE":0,"CLASSIFICATION_TYPE":"U","NORAD_CAT_ID":62383,"ELEMENT_SET_NO":999,"REV_AT_EPOCH":6771,"BSTAR":0.00034516624,"MEAN_MOTION_DOT":9.388e-5,"MEAN_MOTION_DDOT":0}]
